IDEFIX & ARIANE 42P R/B 
1 27422U 02021B   26008.57351300  .00000405  00000+0  17057-3 0  9993
2 27422  98.5815 307.9205 0012099  10.0103 350.1319 14.30975166235427
AQUA                    
1 27424U 02022A   26004.96787593  .00001598  00000+0  32997-3 0  9996
2 27424  98.4069 331.2279 0002002  90.2377   0.6092 14.61798176259425
CZ-4B R/B               
1 27432U 02024C   26008.60676534  .00000062  00000+0  54651-4 0  9991
2 27432  98.8957  62.2794 0050005 192.6153 286.7599 14.14534808220742
MIDORI II (ADEOS-II)    
1 27597U 02056A   26008.59852807  .00000439  00000+0  19043-3 0  9998
2 27597  98.7672 326.7010 0001453 127.5555 232.5759 14.29231142201716
H-2A R/B                
1 27601U 02056E   26008.64145792  .00000509  00000+0  19323-3 0  9997
2 27601  98.3102 331.3329 0069980 341.5488 191.5512 14.33706883205509
CZ-4B R/B               
1 28059U 03049C   26008.55433013  .00000581  00000+0  14464-3 0  9995
2 28059  98.6809   1.1344 0049202  55.9726 304.6129 14.54942534177854
CZ-2C R/B               
1 28222U 04012C   26008.61005994  .00045416  00000+0  60302-3 0  9996
2 28222  97.7368  68.4901 0016872 168.4014 191.7632 15.57931685194906
SL-16 R/B               
1 28353U 04021B   26008.42188184  .00000243  00000+0  15109-3 0  9997
2 28353  71.0021 358.9689 0003609 156.0354 204.0937 14.14590752114317
CZ-4B R/B               
1 28415U 04035C   26008.61450546  .00009353  00000+0  34063-3 0  9997
2 28415  97.3578  43.6041 0032856 178.8532 181.2789 15.27902704170738
CZ-2C R/B               
1 28480U 04046B   26008.53401210  .00000348  00000+0  14494-3 0  9997
2 28480  98.2000 287.2491 0139006 333.2573  26.1487 14.26962627 99923
ARIANE 5 R/B            
1 28499U 04049H   26008.53675043  .00001684  00000+0  19191-3 0  9990
2 28499  98.2540 174.7831 0084253 185.2473 174.7867 14.85104981136860
CZ-2D R/B               
1 28738U 05024B   26008.57267751  .00038819  00000+0  57675-3 0  9996
2 28738  97.3627  21.7555 0003418 220.4019 139.6982 15.55082829130426
